{"type": "FeatureCollection", "features": [ {"type": "Feature", "properties": {"norad_id": 37834, "name": "INTELSAT 18 (IS-18)", "group": "intelsat", "lat": -0.025061796639765672, "lon": -106.6568657364921, "alt_km": 35780.02358076679, "timestamp": "2025-12-23T22:42:32.645840+00:00", "meta": {"OBJECT_NAME": "INTELSAT 18 (IS-18)", "OBJECT_ID": "2011-056A", "EPOCH": "2025-12-23T03:43:03.000576", "MEAN_MOTION": 1.0027138, "ECCENTRICITY": 0.00017336, "INCLINATION": 0.0267, "RA_OF_ASC_NODE": 284.4776, "ARG_OF_PERICENTER": 2.5253, "MEAN_ANOMALY": 40.705, "EPHEMERIS_TYPE": 0, "CLASSIFICATION_TYPE": "U", "NORAD_CAT_ID": 37834, "ELEMENT_SET_NO": 999, "REV_AT_EPOCH": 5204, "BSTAR": 0, "MEAN_MOTION_DOT": 7.4e-07, "MEAN_MOTION_DDOT": 0}, "tle": {"line1": "1 37834U 11056A   25357.15489584  .00000074  00000+0  00000+0 0  9993", "line2": "2 37834   0.0267 284.4776 0001733   2.5253  40.7050  1.00271380 52040"}}, "geometry": {"type": "Point", "coordinates": [-106.6568657364921, -0.025061796639765672]}}, {"type": "Feature", "properties": {"norad_id": 38098, "name": "INTELSAT 22 (IS-22)", "group": "intelsat", "lat": 0.042918147071372335, "lon": 145.42902861157614, "alt_km": 35793.24410195965, "timestamp": "2025-12-23T22:42:32.645852+00:00", "meta": {"OBJECT_NAME": "INTELSAT 22 (IS-22)", "OBJECT_ID": "2012-011A", "EPOCH": "2025-12-23T03:12:13.453056", "MEAN_MOTION": 1.00270392, "ECCENTRICITY": 0.0001903, "INCLINATION": 0.0259, "RA_OF_ASC_NODE": 38.5276, "ARG_OF_PERICENTER": 254.4905, "MEAN_ANOMALY": 279.052, "EPHEMERIS_TYPE": 0, "CLASSIFICATION_TYPE": "U", "NORAD_CAT_ID": 38098, "ELEMENT_SET_NO": 999, "REV_AT_EPOCH": 542, "BSTAR": 0, "MEAN_MOTION_DOT": 0, "MEAN_MOTION_DDOT": 0}, "tle": {"line1": "1 38098U 12011A   25357.13348904  .00000000  00000+0  00000+0 0  9995", "line2": "2 38098   0.0259  38.5276 0001903 254.4905 279.0520  1.00270392  5429"}}, "geometry": {"type": "Point", "coordinates": [145.42902861157614, 0.042918147071372335]}}, {"type": "Feature", "properties": {"norad_id": 38356, "name": "INTELSAT 19 (IS-19)", "group": "intelsat", "lat": -0.029104369817097492, "lon": -120.65353956809068, "alt_km": 35775.41264713726, "timestamp": "2025-12-23T22:42:32.645864+00:00", "meta": {"OBJECT_NAME": "INTELSAT 19 (IS-19)", "OBJECT_ID": "2012-030A", "EPOCH": "2025-12-23T03:39:03.383136", "MEAN_MOTION": 1.00272137, "ECCENTRICITY": 0.00028482, "INCLINATION": 0.017, "RA_OF_ASC_NODE": 316.6766, "ARG_OF_PERICENTER": 311.487, "MEAN_ANOMALY": 44.5494, "EPHEMERIS_TYPE": 0, "CLASSIFICATION_TYPE": "U", "NORAD_CAT_ID": 38356, "ELEMENT_SET_NO": 999, "REV_AT_EPOCH": 4868, "BSTAR": 0, "MEAN_MOTION_DOT": -3.5e-07, "MEAN_MOTION_DDOT": 0}, "tle": {"line1": "1 38356U 12030A   25357.15212249 -.00000035  00000+0  00000+0 0  9996", "line2": "2 38356   0.0170 316.6766 0002848 311.4870  44.5494  1.00272137 48685"}}, "geometry": {"type": "Point", "coordinates": [-120.65353956809068, -0.029104369817097492]}}, {"type": "Feature", "properties": {"norad_id": 38740, "name": "INTELSAT 20 (IS-20)", "group": "intelsat", "lat": 0.02715531194162485, "lon": 141.82434975312202, "alt_km": 35776.38793427004, "timestamp": "2025-12-23T22:42:32.645876+00:00", "meta": {"OBJECT_NAME": "INTELSAT 20 (IS-20)", "OBJECT_ID": "2012-043A", "EPOCH": "2025-12-23T03:11:13.549344", "MEAN_MOTION": 1.0027156, "ECCENTRICITY": 0.00030742, "INCLINATION": 0.0106, "RA_OF_ASC_NODE": 57.5703, "ARG_OF_PERICENTER": 125.3187, "MEAN_ANOMALY": 25.3339, "EPHEMERIS_TYPE": 0, "CLASSIFICATION_TYPE": "U", "NORAD_CAT_ID": 38740, "ELEMENT_SET_NO": 999, "REV_AT_EPOCH": 4898, "BSTAR": 0, "MEAN_MOTION_DOT": -3e-08, "MEAN_MOTION_DDOT": 0}, "tle": {"line1": "1 38740U 12043A   25357.13279571 -.00000003  00000+0  00000+0 0  9991", "line2": "2 38740   0.0106  57.5703 0003074 125.3187  25.3339  1.00271560 48985"}}, "geometry": {"type": "Point", "coordinates": [141.82434975312202, 0.02715531194162485]}}, {"type": "Feature", "properties": {"norad_id": 38749, "name": "INTELSAT 21 (IS-21)", "group": "intelsat", "lat": 0.01590867801861111, "lon": 15.373836645403678, "alt_km": 35788.502805678865, "timestamp": "2025-12-23T22:42:32.645888+00:00", "meta": {"OBJECT_NAME": "INTELSAT 21 (IS-21)", "OBJECT_ID": "2012-045A", "EPOCH": "2025-12-23T06:39:34.020576", "MEAN_MOTION": 1.00270974, "ECCENTRICITY": 0.00015629, "INCLINATION": 0.0176, "RA_OF_ASC_NODE": 300.4041, "ARG_OF_PERICENTER": 326.1911, "MEAN_ANOMALY": 227.3669, "EPHEMERIS_TYPE": 0, "CLASSIFICATION_TYPE": "U", "NORAD_CAT_ID": 38749, "ELEMENT_SET_NO": 999, "REV_AT_EPOCH": 4876, "BSTAR": 0, "MEAN_MOTION_DOT": -2.64e-06, "MEAN_MOTION_DDOT": 0}, "tle": {"line1": "1 38749U 12045A   25357.27747709 -.00000264  00000+0  00000+0 0  9999", "line2": "2 38749   0.0176 300.4041 0001562 326.1911 227.3669  1.00270974 48766"}}, "geometry": {"type": "Point", "coordinates": [15.373836645403678, 0.01590867801861111]}}, {"type": "Feature", "properties": {"norad_id": 38867, "name": "INTELSAT 23 (IS-23)", "group": "intelsat", "lat": -0.0074134558862560054, "lon": 20.35042399946393, "alt_km": 35786.858950493166, "timestamp": "2025-12-23T22:42:32.645899+00:00", "meta": {"OBJECT_NAME": "INTELSAT 23 (IS-23)", "OBJECT_ID": "2012-057A", "EPOCH": "2025-12-23T05:52:14.717856", "MEAN_MOTION": 1.00264375, "ECCENTRICITY": 0.00010412, "INCLINATION": 0.0187, "RA_OF_ASC_NODE": 43.4294, "ARG_OF_PERICENTER": 265.4631, "MEAN_ANOMALY": 178.2058, "EPHEMERIS_TYPE": 0, "CLASSIFICATION_TYPE": "U", "NORAD_CAT_ID": 38867, "ELEMENT_SET_NO": 999, "REV_AT_EPOCH": 4819, "BSTAR": 0, "MEAN_MOTION_DOT": -2.64e-06, "MEAN_MOTION_DDOT": 0}, "tle": {"line1": "1 38867U 12057A   25357.24461479 -.00000264  00000+0  00000+0 0  9997", "line2": "2 38867   0.0187  43.4294 0001041 265.4631 178.2058  1.00264375 48190"}}, "geometry": {"type": "Point", "coordinates": [20.35042399946393, -0.0074134558862560054]}}, {"type": "Feature", "properties": {"norad_id": 39360, "name": "FM-6", "group": "intelsat", "lat": -0.02786140035798607, "lon": -42.790840976650884, "alt_km": 35796.338357693065, "timestamp": "2025-12-23T22:42:32.645911+00:00", "meta": {"OBJECT_NAME": "FM-6", "OBJECT_ID": "2013-058A", "EPOCH": "2025-12-23T05:52:00.631200", "MEAN_MOTION": 1.00269952, "ECCENTRICITY": 0.00030088, "INCLINATION": 0.012, "RA_OF_ASC_NODE": 61.4957, "ARG_OF_PERICENTER": 115.0989, "MEAN_ANOMALY": 247.2786, "EPHEMERIS_TYPE": 0, "CLASSIFICATION_TYPE": "U", "NORAD_CAT_ID": 39360, "ELEMENT_SET_NO": 999, "REV_AT_EPOCH": 4430, "BSTAR": 0, "MEAN_MOTION_DOT": 4e-08, "MEAN_MOTION_DDOT": 0}, "tle": {"line1": "1 39360U 13058A   25357.24445175  .00000004  00000+0  00000+0 0  9994", "line2": "2 39360   0.0120  61.4957 0003008 115.0989 247.2786  1.00269952 44303"}}, "geometry": {"type": "Point", "coordinates": [-42.790840976650884, -0.02786140035798607]}}, {"type": "Feature", "properties": {"norad_id": 40271, "name": "INTELSAT 30 (IS-30)", "group": "intelsat", "lat": -0.020840122891980045, "lon": -21.706698242541144, "alt_km": 35789.5745690121, "timestamp": "2025-12-23T22:42:32.645922+00:00", "meta": {"OBJECT_NAME": "INTELSAT 30 (IS-30)", "OBJECT_ID": "2014-062A", "EPOCH": "2025-12-23T03:22:26.874912", "MEAN_MOTION": 1.00271687, "ECCENTRICITY": 0.00017173, "INCLINATION": 0.0116, "RA_OF_ASC_NODE": 17.0028, "ARG_OF_PERICENTER": 79.4472, "MEAN_ANOMALY": 311.0494, "EPHEMERIS_TYPE": 0, "CLASSIFICATION_TYPE": "U", "NORAD_CAT_ID": 40271, "ELEMENT_SET_NO": 999, "REV_AT_EPOCH": 502, "BSTAR": 0, "MEAN_MOTION_DOT": -1.3e-06, "MEAN_MOTION_DDOT": 0}, "tle": {"line1": "1 40271U 14062A   25357.14058883 -.00000130  00000+0  00000+0 0  9999", "line2": "2 40271   0.0116  17.0028 0001717  79.4472 311.0494  1.00271687  5022"}}, "geometry": {"type": "Point", "coordinates": [-21.706698242541144, -0.020840122891980045]}}, {"type": "Feature", "properties": {"norad_id": 40333, "name": "DIRECTV 14", "group": "intelsat", "lat": -0.02751912570540918, "lon": -25.865693362397902, "alt_km": 35787.81642172123, "timestamp": "2025-12-23T22:42:32.645934+00:00", "meta": {"OBJECT_NAME": "DIRECTV 14", "OBJECT_ID": "2014-078B", "EPOCH": "2025-12-23T00:40:39.129888", "MEAN_MOTION": 1.00271593, "ECCENTRICITY": 4.075e-05, "INCLINATION": 0.0215, "RA_OF_ASC_NODE": 12.0937, "ARG_OF_PERICENTER": 126.9823, "MEAN_ANOMALY": 223.6888, "EPHEMERIS_TYPE": 0, "CLASSIFICATION_TYPE": "U", "NORAD_CAT_ID": 40333, "ELEMENT_SET_NO": 999, "REV_AT_EPOCH": 4027, "BSTAR": 0, "MEAN_MOTION_DOT": 0, "MEAN_MOTION_DDOT": 0}, "tle": {"line1": "1 40333U 14078B   25357.02823067  .00000000  00000+0  00000+0 0  9991", "line2": "2 40333   0.0215  12.0937 0000407 126.9823 223.6888  1.00271593 40275"}}, "geometry": {"type": "Point", "coordinates": [-25.865693362397902, -0.02751912570540918]}}, {"type": "Feature", "properties": {"norad_id": 40663, "name": "DIRECTV 15", "group": "intelsat", "lat": -0.03307794882540044, "lon": -29.535575438366767, "alt_km": 35788.73821266349, "timestamp": "2025-12-23T22:42:32.645945+00:00", "meta": {"OBJECT_NAME": "DIRECTV 15", "OBJECT_ID": "2015-026A", "EPOCH": "2025-12-23T03:20:33.614016", "MEAN_MOTION": 1.00267208, "ECCENTRICITY": 3.254e-05, "INCLINATION": 0.0221, "RA_OF_ASC_NODE": 19.8534, "ARG_OF_PERICENTER": 136.6441, "MEAN_ANOMALY": 242.6949, "EPHEMERIS_TYPE": 0, "CLASSIFICATION_TYPE": "U", "NORAD_CAT_ID": 40663, "ELEMENT_SET_NO": 999, "REV_AT_EPOCH": 3869, "BSTAR": 0, "MEAN_MOTION_DOT": 0, "MEAN_MOTION_DDOT": 0}, "tle": {"line1": "1 40663U 15026A   25357.13927794  .00000000  00000+0  00000+0 0  9995", "line2": "2 40663   0.0221  19.8534 0000325 136.6441 242.6949  1.00267208 38699"}}, "geometry": {"type": "Point", "coordinates": [-29.535575438366767, -0.03307794882540044]}}]}